     2.10           N:  GPS NAV DATA                        RINEX VERSION / TYPE
Pinnacle 1.00                           16-NOV-08 16:01     PGM / RUN BY / DATE
build April 19, 2002                                        COMMENT
                                                            END OF HEADER       
 4 08 11 15  6  0  0.0 -.232845079154D-03 -.121644916362D-10  .000000000000D+00
     .800000000000D+01  .354687500000D+02  .470091009749D-08 -.599067943664D+00
     .194832682610D-05  .849929603282D-02  .103525817394D-04  .515362261009D+04
     .540000000000D+06  .173225998878D-06  .311820950853D+01  .121071934700D-06
     .942051110564D+00  .167218750000D+03  .432109654416D+00 -.802890586473D-08
    -.555737434409D-09  .000000000000D+00  .150500000000D+04  .000000000000D+00
     .200000000000D+01  .000000000000D+00 -.605359673500D-08  .800000000000D+01
     .539999000000D+06                                                          
 4 08 11 15  8  0  0.0 -.232933089137D-03 -.121644916362D-10  .000000000000D+00
     .600000000000D+02  .278125000000D+02  .474412618333D-08  .451160159854D+00
     .162981450558D-05  .849813676905D-02  .106040388346D-04  .515362042236D+04
     .547200000000D+06  .298023223877D-07  .311815164719D+01  .197440385818D-06
     .942046971969D+00  .163062500000D+03  .432095507998D+00 -.803712049261D-08
    -.593953311968D-09  .000000000000D+00  .150500000000D+04  .000000000000D+00
     .200000000000D+01  .000000000000D+00 -.605359673500D-08  .600000000000D+02
     .547199000000D+06                                                          
 8 08 11 15  3 59 44.0 -.178012065589D-03 -.136424205266D-11  .000000000000D+00
     .300000000000D+02 -.142531250000D+03  .368301055503D-08 -.660787412905D+00
    -.764615833759D-05  .106080940459D-01  .916980206966D-05  .515371213722D+04
     .532784000000D+06  .838190317154D-07  .256264641079D-01 -.199303030968D-06
     .986334269879D+00  .214218750000D+03  .294227661331D+01 -.764710424687D-08
    -.400016662300D-10  .000000000000D+00  .150500000000D+04  .000000000000D+00
     .200000000000D+01  .000000000000D+00 -.372529029846D-08  .300000000000D+02
     .532799000000D+06                                                          
 8 08 11 15  4  0  0.0 -.178019050509D-03 -.136424205266D-11  .000000000000D+00
     .164000000000D+03 -.142531250000D+03  .368301055503D-08 -.658452550300D+00
    -.764615833759D-05  .106080916012D-01  .916980206966D-05  .515371214294D+04
     .532800000000D+06  .838190317154D-07  .256263485374D-01 -.199303030968D-06
     .986334252324D+00  .214218750000D+03  .294227542835D+01 -.764710424687D-08
    -.400016662300D-10  .000000000000D+00  .150500000000D+04  .000000000000D+00
     .400000000000D+01  .000000000000D+00 -.372529029846D-08  .164000000000D+03
     .532799000000D+06                                                          
 8 08 11 15  5 59 44.0 -.178021844476D-03 -.136424205266D-11  .000000000000D+00
     .310000000000D+02 -.136968750000D+03  .370765443869D-08  .389297403639D+00
    -.735186040401D-05  .106091547059D-01  .848621129990D-05  .515371395111D+04
     .539984000000D+06  .154599547386D-06  .255712740605D-01 -.316649675369D-07
     .986333283872D+00  .227500000000D+03  .294234368957D+01 -.774389399284D-08
    -.106790162525D-09  .000000000000D+00  .150500000000D+04  .000000000000D+00
     .200000000000D+01  .000000000000D+00 -.372529029846D-08  .310000000000D+02
     .539999000000D+06                                                          
 8 08 11 15  8  0  0.0 -.178031623363D-03 -.136424205266D-11  .000000000000D+00
     .340000000000D+02 -.140875000000D+03  .375872799468D-08  .144184917698D+01
    -.717304646969D-05  .106094779912D-01  .800937414169D-05  .515371323776D+04
     .547200000000D+06  .614672899246D-07  .255162127498D-01  .912696123123D-07
     .986332583134D+00  .237468750000D+03  .294227523232D+01 -.764853287781D-08
    -.178221709364D-09  .000000000000D+00  .150500000000D+04  .000000000000D+00
     .200000000000D+01  .000000000000D+00 -.372529029846D-08  .340000000000D+02
     .547199000000D+06                                                          
11 08 11 15  3 59 44.0  .155875459313D-04 -.909494701773D-12  .000000000000D+00
     .280000000000D+02  .312500000000D+01  .617025701597D-08 -.164622224125D+00
     .193715095520D-06  .887386151589D-02  .926293432713D-05  .515365563011D+04
     .532784000000D+06  .298023223877D-07  .290943838439D+01  .132247805595D-06
     .890608427244D+00  .163218750000D+03  .646065000343D+00 -.880572393660D-08
    -.633240662730D-09  .000000000000D+00  .150500000000D+04  .000000000000D+00
     .200000000000D+01  .000000000000D+00 -.121071934700D-07  .280000000000D+02
     .532799000000D+06                                                          
11 08 11 15  6  0  0.0  .155810266733D-04 -.909494701773D-12  .000000000000D+00
     .290000000000D+02 -.125000000000D+01  .616061375715D-08  .887913967672D+00
     .484287738800D-07  .887334591243D-02  .935606658459D-05  .515365472603D+04
     .540000000000D+06 -.132247805595D-06  .290937573639D+01  .894069671631D-07
     .890603713722D+00  .162031250000D+03  .646066537870D+00 -.873357807430D-08
    -.748245453141D-09  .000000000000D+00  .150500000000D+04  .000000000000D+00
     .200000000000D+01  .000000000000D+00 -.121071934700D-07  .290000000000D+02
     .539999000000D+06                                                          
11 08 11 15  8  0  0.0  .155749730766D-04 -.909494701773D-12  .000000000000D+00
     .420000000000D+02 -.209375000000D+01  .614204155497D-08  .193807787103D+01
    -.132247805595D-06  .887358828913D-02  .961311161518D-05  .515365545845D+04
     .547200000000D+06 -.210478901863D-06  .290931265975D+01 -.391155481339D-07
     .890598502808D+00  .158187500000D+03  .646106690583D+00 -.866286084293D-08
    -.712172521987D-09  .000000000000D+00  .150500000000D+04  .000000000000D+00
     .200000000000D+01  .000000000000D+00 -.121071934700D-07  .420000000000D+02
     .547199000000D+06                                                          
17 08 11 15  6  0  0.0  .405185855925D-04  .454747350886D-12  .000000000000D+00
     .210000000000D+02 -.750000000000D+01  .493591988659D-08 -.239170982555D+01
    -.318512320518D-06  .394103804138D-02  .546686351299D-05  .515359778214D+04
     .540000000000D+06 -.931322574615D-08  .207808710119D+01 -.987201929092D-07
     .959239093073D+00  .272500000000D+03 -.279650847739D+01 -.806605026908D-08
    -.900037490174D-10  .000000000000D+00  .150500000000D+04  .000000000000D+00
     .200000000000D+01  .000000000000D+00 -.102445483208D-07  .210000000000D+02
     .539999000000D+06                                                          
17 08 11 15  8  0  0.0  .405218452215D-04  .454747350886D-12  .000000000000D+00
     .350000000000D+02 -.709375000000D+01  .500127975195D-08 -.134150838079D+01
    -.331550836563D-06  .394104921725D-02  .563263893127D-05  .515359757042D+04
     .547200000000D+06  .558793544769D-07  .207802890924D+01 -.745058059692D-07
     .959238553256D+00  .273281250000D+03 -.279647931997D+01 -.808462247126D-08
    -.785747015231D-10  .000000000000D+00  .150500000000D+04  .000000000000D+00
     .200000000000D+01  .000000000000D+00 -.102445483208D-07  .350000000000D+02
     .547199000000D+06                                                          
19 08 11 15  4  0  0.0  .355234369636D-04 -.113686837722D-12  .000000000000D+00
     .430000000000D+02 -.978125000000D+01  .504806741513D-08  .217405900665D+01
    -.428408384323D-06  .493708555587D-02  .547058880329D-05  .515374160194D+04
     .532800000000D+06  .894069671631D-07  .213477216754D+01  .912696123123D-07
     .957034487231D+00  .271375000000D+03 -.426279188559D+00 -.814819654795D-08
    -.230366738556D-09  .000000000000D+00  .150500000000D+04  .000000000000D+00
     .200000000000D+01  .000000000000D+00 -.144354999065D-07  .430000000000D+02
     .532799000000D+06                                                          
19 08 11 15  6  0  0.0  .355225056410D-04 -.113686837722D-12  .000000000000D+00
     .460000000000D+02 -.615625000000D+01  .501949479639D-08 -.305894607978D+01
    -.262632966042D-06  .493755668867D-02  .551715493202D-05  .515374065399D+04
     .540000000000D+06 -.558793544769D-07  .213471323681D+01  .465661287308D-07
     .957033510001D+00  .271437500000D+03 -.426315695680D+00 -.806176437627D-08
    -.133576992589D-09  .000000000000D+00  .150500000000D+04  .000000000000D+00
     .200000000000D+01  .000000000000D+00 -.144354999065D-07  .460000000000D+02
     .539999000000D+06                                                          
19 08 11 15  8  0  0.0  .355215743184D-04 -.113686837722D-12  .000000000000D+00
     .490000000000D+02 -.840625000000D+01  .503449542123D-08 -.200889183237D+01
    -.406056642532D-06  .493814074434D-02  .587850809097D-05  .515373927307D+04
     .547200000000D+06 -.782310962677D-07  .213465499219D+01 -.931322574615D-08
     .957032412813D+00  .266750000000D+03 -.426225910546D+00 -.810319467344D-08
    -.118576367753D-09  .000000000000D+00  .150500000000D+04  .000000000000D+00
     .200000000000D+01  .000000000000D+00 -.144354999065D-07  .490000000000D+02
     .547199000000D+06                                                          
20 08 11 15  6  0  0.0  .990466214716D-04 -.102318153949D-11  .000000000000D+00
     .450000000000D+02  .149812500000D+03  .479412826611D-08 -.103963487233D+01
     .789761543274D-05  .361294439062D-02  .694207847118D-05  .515374171257D+04
     .540000000000D+06  .372529029846D-08 -.214612684760D+01  .633299350739D-07
     .944859083802D+00  .240375000000D+03  .133211163664D+01 -.826070123422D-08
     .182864759908D-09  .000000000000D+00  .150500000000D+04  .000000000000D+00
     .200000000000D+01  .000000000000D+00 -.651925802231D-08  .450000000000D+02
     .539999000000D+06                                                          
